{"type":"FeatureCollection","features":[{"type":"Feature","properties":{"kind":"meridian"},"geometry":{"type":"LineString","coordinates":[[-180,-85],[-180,-80],[-180,-75],[-180,-70],[-180,-65],[-180,-60],[-180,-55],[-180,-50],[-180,-45],[-180,-40],[-180,-35],[-180,-30],[-180,-25],[-180,-20],[-180,-15],[-180,-10],[-180,-5],[-180,0],[-180,5],[-180,10],[-180,15],[-180,20],[-180,25],[-180,30],[-180,35],[-180,40],[-180,45],[-180,50],[-180,55],[-180,60],[-180,65],[-180,70],[-180,75],[-180,80],[-180,85]]}},{"type":"Feature","properties":{"kind":"meridian"},"geometry":{"type":"LineString","coordinates":[[-160,-85],[-160,-80],[-160,-75],[-160,-70],[-160,-65],[-160,-60],[-160,-55],[-160,-50],[-160,-45],[-160,-40],[-160,-35],[-160,-30],[-160,-25],[-160,-20],[-160,-15],[-160,-10],[-160,-5],[-160,0],[-160,5],[-160,10],[-160,15],[-160,20],[-160,25],[-160,30],[-160,35],[-160,40],[-160,45],[-160,50],[-160,55],[-160,60],[-160,65],[-160,70],[-160,75],[-160,80],[-160,85]]}},{"type":"Feature","properties":{"kind":"meridian"},"geometry":{"type":"LineString","coordinates":[[-140,-85],[-140,-80],[-140,-75],[-140,-70],[-140,-65],[-140,-60],[-140,-55],[-140,-50],[-140,-45],[-140,-40],[-140,-35],[-140,-30],[-140,-25],[-140,-20],[-140,-15],[-140,-10],[-140,-5],[-140,0],[-140,5],[-140,10],[-140,15],[-140,20],[-140,25],[-140,30],[-140,35],[-140,40],[-140,45],[-140,50],[-140,55],[-140,60],[-140,65],[-140,70],[-140,75],[-140,80],[-140,85]]}},{"type":"Feature","properties":{"kind":"meridian"},"geometry":{"type":"LineString","coordinates":[[-120,-85],[-120,-80],[-120,-75],[-120,-70],[-120,-65],[-120,-60],[-120,-55],[-120,-50],[-120,-45],[-120,-40],[-120,-35],[-120,-30],[-120,-25],[-120,-20],[-120,-15],[-120,-10],[-120,-5],[-120,0],[-120,5],[-120,10],[-120,15],[-120,20],[-120,25],[-120,30],[-120,35],[-120,40],[-120,45],[-120,50],[-120,55],[-120,60],[-120,65],[-120,70],[-120,75],[-120,80],[-120,85]]}},{"type":"Feature","properties":{"kind":"meridian"},"geometry":{"type":"LineString","coordinates":[[-100,-85],[-100,-80],[-100,-75],[-100,-70],[-100,-65],[-100,-60],[-100,-55],[-100,-50],[-100,-45],[-100,-40],[-100,-35],[-100,-30],[-100,-25],[-100,-20],[-100,-15],[-100,-10],[-100,-5],[-100,0],[-100,5],[-100,10],[-100,15],[-100,20],[-100,25],[-100,30],[-100,35],[-100,40],[-100,45],[-100,50],[-100,55],[-100,60],[-100,65],[-100,70],[-100,75],[-100,80],[-100,85]]}},{"type":"Feature","properties":{"kind":"meridian"},"geometry":{"type":"LineString","coordinates":[[-80,-85],[-80,-80],[-80,-75],[-80,-70],[-80,-65],[-80,-60],[-80,-55],[-80,-50],[-80,-45],[-80,-40],[-80,-35],[-80,-30],[-80,-25],[-80,-20],[-80,-15],[-80,-10],[-80,-5],[-80,0],[-80,5],[-80,10],[-80,15],[-80,20],[-80,25],[-80,30],[-80,35],[-80,40],[-80,45],[-80,50],[-80,55],[-80,60],[-80,65],[-80,70],[-80,75],[-80,80],[-80,85]]}},{"type":"Feature","properties":{"kind":"meridian"},"geometry":{"type":"LineString","coordinates":[[-60,-85],[-60,-80],[-60,-75],[-60,-70],[-60,-65],[-60,-60],[-60,-55],[-60,-50],[-60,-45],[-60,-40],[-60,-35],[-60,-30],[-60,-25],[-60,-20],[-60,-15],[-60,-10],[-60,-5],[-60,0],[-60,5],[-60,10],[-60,15],[-60,20],[-60,25],[-60,30],[-60,35],[-60,40],[-60,45],[-60,50],[-60,55],[-60,60],[-60,65],[-60,70],[-60,75],[-60,80],[-60,85]]}},{"type":"Feature","properties":{"kind":"meridian"},"geometry":{"type":"LineString","coordinates":[[-40,-85],[-40,-80],[-40,-75],[-40,-70],[-40,-65],[-40,-60],[-40,-55],[-40,-50],[-40,-45],[-40,-40],[-40,-35],[-40,-30],[-40,-25],[-40,-20],[-40,-15],[-40,-10],[-40,-5],[-40,0],[-40,5],[-40,10],[-40,15],[-40,20],[-40,25],[-40,30],[-40,35],[-40,40],[-40,45],[-40,50],[-40,55],[-40,60],[-40,65],[-40,70],[-40,75],[-40,80],[-40,85]]}},{"type":"Feature","properties":{"kind":"meridian"},"geometry":{"type":"LineString","coordinates":[[-20,-85],[-20,-80],[-20,-75],[-20,-70],[-20,-65],[-20,-60],[-20,-55],[-20,-50],[-20,-45],[-20,-40],[-20,-35],[-20,-30],[-20,-25],[-20,-20],[-20,-15],[-20,-10],[-20,-5],[-20,0],[-20,5],[-20,10],[-20,15],[-20,20],[-20,25],[-20,30],[-20,35],[-20,40],[-20,45],[-20,50],[-20,55],[-20,60],[-20,65],[-20,70],[-20,75],[-20,80],[-20,85]]}},{"type":"Feature","properties":{"kind":"meridian"},"geometry":{"type":"LineString","coordinates":[[0,-85],[0,-80],[0,-75],[0,-70],[0,-65],[0,-60],[0,-55],[0,-50],[0,-45],[0,-40],[0,-35],[0,-30],[0,-25],[0,-20],[0,-15],[0,-10],[0,-5],[0,0],[0,5],[0,10],[0,15],[0,20],[0,25],[0,30],[0,35],[0,40],[0,45],[0,50],[0,55],[0,60],[0,65],[0,70],[0,75],[0,80],[0,85]]}},{"type":"Feature","properties":{"kind":"meridian"},"geometry":{"type":"LineString","coordinates":[[20,-85],[20,-80],[20,-75],[20,-70],[20,-65],[20,-60],[20,-55],[20,-50],[20,-45],[20,-40],[20,-35],[20,-30],[20,-25],[20,-20],[20,-15],[20,-10],[20,-5],[20,0],[20,5],[20,10],[20,15],[20,20],[20,25],[20,30],[20,35],[20,40],[20,45],[20,50],[20,55],[20,60],[20,65],[20,70],[20,75],[20,80],[20,85]]}},{"type":"Feature","properties":{"kind":"meridian"},"geometry":{"type":"LineString","coordinates":[[40,-85],[40,-80],[40,-75],[40,-70],[40,-65],[40,-60],[40,-55],[40,-50],[40,-45],[40,-40],[40,-35],[40,-30],[40,-25],[40,-20],[40,-15],[40,-10],[40,-5],[40,0],[40,5],[40,10],[40,15],[40,20],[40,25],[40,30],[40,35],[40,40],[40,45],[40,50],[40,55],[40,60],[40,65],[40,70],[40,75],[40,80],[40,85]]}},{"type":"Feature","properties":{"kind":"meridian"},"geometry":{"type":"LineString","coordinates":[[60,-85],[60,-80],[60,-75],[60,-70],[60,-65],[60,-60],[60,-55],[60,-50],[60,-45],[60,-40],[60,-35],[60,-30],[60,-25],[60,-20],[60,-15],[60,-10],[60,-5],[60,0],[60,5],[60,10],[60,15],[60,20],[60,25],[60,30],[60,35],[60,40],[60,45],[60,50],[60,55],[60,60],[60,65],[60,70],[60,75],[60,80],[60,85]]}},{"type":"Feature","properties":{"kind":"meridian"},"geometry":{"type":"LineString","coordinates":[[80,-85],[80,-80],[80,-75],[80,-70],[80,-65],[80,-60],[80,-55],[80,-50],[80,-45],[80,-40],[80,-35],[80,-30],[80,-25],[80,-20],[80,-15],[80,-10],[80,-5],[80,0],[80,5],[80,10],[80,15],[80,20],[80,25],[80,30],[80,35],[80,40],[80,45],[80,50],[80,55],[80,60],[80,65],[80,70],[80,75],[80,80],[80,85]]}},{"type":"Feature","properties":{"kind":"meridian"},"geometry":{"type":"LineString","coordinates":[[100,-85],[100,-80],[100,-75],[100,-70],[100,-65],[100,-60],[100,-55],[100,-50],[100,-45],[100,-40],[100,-35],[100,-30],[100,-25],[100,-20],[100,-15],[100,-10],[100,-5],[100,0],[100,5],[100,10],[100,15],[100,20],[100,25],[100,30],[100,35],[100,40],[100,45],[100,50],[100,55],[100,60],[100,65],[100,70],[100,75],[100,80],[100,85]]}},{"type":"Feature","properties":{"kind":"meridian"},"geometry":{"type":"LineString","coordinates":[[120,-85],[120,-80],[120,-75],[120,-70],[120,-65],[120,-60],[120,-55],[120,-50],[120,-45],[120,-40],[120,-35],[120,-30],[120,-25],[120,-20],[120,-15],[120,-10],[120,-5],[120,0],[120,5],[120,10],[120,15],[120,20],[120,25],[120,30],[120,35],[120,40],[120,45],[120,50],[120,55],[120,60],[120,65],[120,70],[120,75],[120,80],[120,85]]}},{"type":"Feature","properties":{"kind":"meridian"},"geometry":{"type":"LineString","coordinates":[[140,-85],[140,-80],[140,-75],[140,-70],[140,-65],[140,-60],[140,-55],[140,-50],[140,-45],[140,-40],[140,-35],[140,-30],[140,-25],[140,-20],[140,-15],[140,-10],[140,-5],[140,0],[140,5],[140,10],[140,15],[140,20],[140,25],[140,30],[140,35],[140,40],[140,45],[140,50],[140,55],[140,60],[140,65],[140,70],[140,75],[140,80],[140,85]]}},{"type":"Feature","properties":{"kind":"meridian"},"geometry":{"type":"LineString","coordinates":[[160,-85],[160,-80],[160,-75],[160,-70],[160,-65],[160,-60],[160,-55],[160,-50],[160,-45],[160,-40],[160,-35],[160,-30],[160,-25],[160,-20],[160,-15],[160,-10],[160,-5],[160,0],[160,5],[160,10],[160,15],[160,20],[160,25],[160,30],[160,35],[160,40],[160,45],[160,50],[160,55],[160,60],[160,65],[160,70],[160,75],[160,80],[160,85]]}},{"type":"Feature","properties":{"kind":"meridian"},"geometry":{"type":"LineString","coordinates":[[180,-85],[180,-80],[180,-75],[180,-70],[180,-65],[180,-60],[180,-55],[180,-50],[180,-45],[180,-40],[180,-35],[180,-30],[180,-25],[180,-20],[180,-15],[180,-10],[180,-5],[180,0],[180,5],[180,10],[180,15],[180,20],[180,25],[180,30],[180,35],[180,40],[180,45],[180,50],[180,55],[180,60],[180,65],[180,70],[180,75],[180,80],[180,85]]}},{"type":"Feature","properties":{"kind":"parallel"},"geometry":{"type":"LineString","coordinates":[[-180,-80],[-175,-80],[-170,-80],[-165,-80],[-160,-80],[-155,-80],[-150,-80],[-145,-80],[-140,-80],[-135,-80],[-130,-80],[-125,-80],[-120,-80],[-115,-80],[-110,-80],[-105,-80],[-100,-80],[-95,-80],[-90,-80],[-85,-80],[-80,-80],[-75,-80],[-70,-80],[-65,-80],[-60,-80],[-55,-80],[-50,-80],[-45,-80],[-40,-80],[-35,-80],[-30,-80],[-25,-80],[-20,-80],[-15,-80],[-10,-80],[-5,-80],[0,-80],[5,-80],[10,-80],[15,-80],[20,-80],[25,-80],[30,-80],[35,-80],[40,-80],[45,-80],[50,-80],[55,-80],[60,-80],[65,-80],[70,-80],[75,-80],[80,-80],[85,-80],[90,-80],[95,-80],[100,-80],[105,-80],[110,-80],[115,-80],[120,-80],[125,-80],[130,-80],[135,-80],[140,-80],[145,-80],[150,-80],[155,-80],[160,-80],[165,-80],[170,-80],[175,-80],[180,-80]]}},{"type":"Feature","properties":{"kind":"parallel"},"geometry":{"type":"LineString","coordinates":[[-180,-60],[-175,-60],[-170,-60],[-165,-60],[-160,-60],[-155,-60],[-150,-60],[-145,-60],[-140,-60],[-135,-60],[-130,-60],[-125,-60],[-120,-60],[-115,-60],[-110,-60],[-105,-60],[-100,-60],[-95,-60],[-90,-60],[-85,-60],[-80,-60],[-75,-60],[-70,-60],[-65,-60],[-60,-60],[-55,-60],[-50,-60],[-45,-60],[-40,-60],[-35,-60],[-30,-60],[-25,-60],[-20,-60],[-15,-60],[-10,-60],[-5,-60],[0,-60],[5,-60],[10,-60],[15,-60],[20,-60],[25,-60],[30,-60],[35,-60],[40,-60],[45,-60],[50,-60],[55,-60],[60,-60],[65,-60],[70,-60],[75,-60],[80,-60],[85,-60],[90,-60],[95,-60],[100,-60],[105,-60],[110,-60],[115,-60],[120,-60],[125,-60],[130,-60],[135,-60],[140,-60],[145,-60],[150,-60],[155,-60],[160,-60],[165,-60],[170,-60],[175,-60],[180,-60]]}},{"type":"Feature","properties":{"kind":"parallel"},"geometry":{"type":"LineString","coordinates":[[-180,-40],[-175,-40],[-170,-40],[-165,-40],[-160,-40],[-155,-40],[-150,-40],[-145,-40],[-140,-40],[-135,-40],[-130,-40],[-125,-40],[-120,-40],[-115,-40],[-110,-40],[-105,-40],[-100,-40],[-95,-40],[-90,-40],[-85,-40],[-80,-40],[-75,-40],[-70,-40],[-65,-40],[-60,-40],[-55,-40],[-50,-40],[-45,-40],[-40,-40],[-35,-40],[-30,-40],[-25,-40],[-20,-40],[-15,-40],[-10,-40],[-5,-40],[0,-40],[5,-40],[10,-40],[15,-40],[20,-40],[25,-40],[30,-40],[35,-40],[40,-40],[45,-40],[50,-40],[55,-40],[60,-40],[65,-40],[70,-40],[75,-40],[80,-40],[85,-40],[90,-40],[95,-40],[100,-40],[105,-40],[110,-40],[115,-40],[120,-40],[125,-40],[130,-40],[135,-40],[140,-40],[145,-40],[150,-40],[155,-40],[160,-40],[165,-40],[170,-40],[175,-40],[180,-40]]}},{"type":"Feature","properties":{"kind":"parallel"},"geometry":{"type":"LineString","coordinates":[[-180,-20],[-175,-20],[-170,-20],[-165,-20],[-160,-20],[-155,-20],[-150,-20],[-145,-20],[-140,-20],[-135,-20],[-130,-20],[-125,-20],[-120,-20],[-115,-20],[-110,-20],[-105,-20],[-100,-20],[-95,-20],[-90,-20],[-85,-20],[-80,-20],[-75,-20],[-70,-20],[-65,-20],[-60,-20],[-55,-20],[-50,-20],[-45,-20],[-40,-20],[-35,-20],[-30,-20],[-25,-20],[-20,-20],[-15,-20],[-10,-20],[-5,-20],[0,-20],[5,-20],[10,-20],[15,-20],[20,-20],[25,-20],[30,-20],[35,-20],[40,-20],[45,-20],[50,-20],[55,-20],[60,-20],[65,-20],[70,-20],[75,-20],[80,-20],[85,-20],[90,-20],[95,-20],[100,-20],[105,-20],[110,-20],[115,-20],[120,-20],[125,-20],[130,-20],[135,-20],[140,-20],[145,-20],[150,-20],[155,-20],[160,-20],[165,-20],[170,-20],[175,-20],[180,-20]]}},{"type":"Feature","properties":{"kind":"parallel"},"geometry":{"type":"LineString","coordinates":[[-180,0],[-175,0],[-170,0],[-165,0],[-160,0],[-155,0],[-150,0],[-145,0],[-140,0],[-135,0],[-130,0],[-125,0],[-120,0],[-115,0],[-110,0],[-105,0],[-100,0],[-95,0],[-90,0],[-85,0],[-80,0],[-75,0],[-70,0],[-65,0],[-60,0],[-55,0],[-50,0],[-45,0],[-40,0],[-35,0],[-30,0],[-25,0],[-20,0],[-15,0],[-10,0],[-5,0],[0,0],[5,0],[10,0],[15,0],[20,0],[25,0],[30,0],[35,0],[40,0],[45,0],[50,0],[55,0],[60,0],[65,0],[70,0],[75,0],[80,0],[85,0],[90,0],[95,0],[100,0],[105,0],[110,0],[115,0],[120,0],[125,0],[130,0],[135,0],[140,0],[145,0],[150,0],[155,0],[160,0],[165,0],[170,0],[175,0],[180,0]]}},{"type":"Feature","properties":{"kind":"parallel"},"geometry":{"type":"LineString","coordinates":[[-180,20],[-175,20],[-170,20],[-165,20],[-160,20],[-155,20],[-150,20],[-145,20],[-140,20],[-135,20],[-130,20],[-125,20],[-120,20],[-115,20],[-110,20],[-105,20],[-100,20],[-95,20],[-90,20],[-85,20],[-80,20],[-75,20],[-70,20],[-65,20],[-60,20],[-55,20],[-50,20],[-45,20],[-40,20],[-35,20],[-30,20],[-25,20],[-20,20],[-15,20],[-10,20],[-5,20],[0,20],[5,20],[10,20],[15,20],[20,20],[25,20],[30,20],[35,20],[40,20],[45,20],[50,20],[55,20],[60,20],[65,20],[70,20],[75,20],[80,20],[85,20],[90,20],[95,20],[100,20],[105,20],[110,20],[115,20],[120,20],[125,20],[130,20],[135,20],[140,20],[145,20],[150,20],[155,20],[160,20],[165,20],[170,20],[175,20],[180,20]]}},{"type":"Feature","properties":{"kind":"parallel"},"geometry":{"type":"LineString","coordinates":[[-180,40],[-175,40],[-170,40],[-165,40],[-160,40],[-155,40],[-150,40],[-145,40],[-140,40],[-135,40],[-130,40],[-125,40],[-120,40],[-115,40],[-110,40],[-105,40],[-100,40],[-95,40],[-90,40],[-85,40],[-80,40],[-75,40],[-70,40],[-65,40],[-60,40],[-55,40],[-50,40],[-45,40],[-40,40],[-35,40],[-30,40],[-25,40],[-20,40],[-15,40],[-10,40],[-5,40],[0,40],[5,40],[10,40],[15,40],[20,40],[25,40],[30,40],[35,40],[40,40],[45,40],[50,40],[55,40],[60,40],[65,40],[70,40],[75,40],[80,40],[85,40],[90,40],[95,40],[100,40],[105,40],[110,40],[115,40],[120,40],[125,40],[130,40],[135,40],[140,40],[145,40],[150,40],[155,40],[160,40],[165,40],[170,40],[175,40],[180,40]]}},{"type":"Feature","properties":{"kind":"parallel"},"geometry":{"type":"LineString","coordinates":[[-180,60],[-175,60],[-170,60],[-165,60],[-160,60],[-155,60],[-150,60],[-145,60],[-140,60],[-135,60],[-130,60],[-125,60],[-120,60],[-115,60],[-110,60],[-105,60],[-100,60],[-95,60],[-90,60],[-85,60],[-80,60],[-75,60],[-70,60],[-65,60],[-60,60],[-55,60],[-50,60],[-45,60],[-40,60],[-35,60],[-30,60],[-25,60],[-20,60],[-15,60],[-10,60],[-5,60],[0,60],[5,60],[10,60],[15,60],[20,60],[25,60],[30,60],[35,60],[40,60],[45,60],[50,60],[55,60],[60,60],[65,60],[70,60],[75,60],[80,60],[85,60],[90,60],[95,60],[100,60],[105,60],[110,60],[115,60],[120,60],[125,60],[130,60],[135,60],[140,60],[145,60],[150,60],[155,60],[160,60],[165,60],[170,60],[175,60],[180,60]]}},{"type":"Feature","properties":{"kind":"parallel"},"geometry":{"type":"LineString","coordinates":[[-180,80],[-175,80],[-170,80],[-165,80],[-160,80],[-155,80],[-150,80],[-145,80],[-140,80],[-135,80],[-130,80],[-125,80],[-120,80],[-115,80],[-110,80],[-105,80],[-100,80],[-95,80],[-90,80],[-85,80],[-80,80],[-75,80],[-70,80],[-65,80],[-60,80],[-55,80],[-50,80],[-45,80],[-40,80],[-35,80],[-30,80],[-25,80],[-20,80],[-15,80],[-10,80],[-5,80],[0,80],[5,80],[10,80],[15,80],[20,80],[25,80],[30,80],[35,80],[40,80],[45,80],[50,80],[55,80],[60,80],[65,80],[70,80],[75,80],[80,80],[85,80],[90,80],[95,80],[100,80],[105,80],[110,80],[115,80],[120,80],[125,80],[130,80],[135,80],[140,80],[145,80],[150,80],[155,80],[160,80],[165,80],[170,80],[175,80],[180,80]]}}]}